sat14223
1 14223U 83063D   20046.58344047  .00000129  00000-0  37685-4 0  9994
2 14223  81.6578 342.4724 0054143 226.1959 199.5887 14.37380019912708
